[{"OBJECT_NAME":"O\/OREOS (USA 219)","OBJECT_ID":"2010-062C","EPOCH":"2026-03-09T22:23:02.393376","MEAN_MOTION":14.93281746,"ECCENTRICITY":0.0016854,"INCLINATION":71.9709,"RA_OF_ASC_NODE":305.0929,"ARG_OF_PERICENTER":256.1776,"MEAN_ANOMALY":103.7519,"EPHEMERIS_TYPE":0,"CLASSIFICATION_TYPE":"U","NORAD_CAT_ID":37224,"ELEMENT_SET_NO":999,"REV_AT_EPOCH":10182,"BSTAR":0.00028679427,"MEAN_MOTION_DOT":2.95e-5,"MEAN_MOTION_DDOT":0},{"OBJECT_NAME":"STARLINK-33993","OBJECT_ID":"2025-098Z","EPOCH":"2026-03-09T19:19:59.406816","MEAN_MOTION":14.98390673,"ECCENTRICITY":0.00023778,"INCLINATION":70.0003,"RA_OF_ASC_NODE":273.9954,"ARG_OF_PERICENTER":281.9857,"MEAN_ANOMALY":78.1036,"EPHEMERIS_TYPE":0,"CLASSIFICATION_TYPE":"U","NORAD_CAT_ID":63949,"ELEMENT_SET_NO":999,"REV_AT_EPOCH":4657,"BSTAR":-0.0074293417,"MEAN_MOTION_DOT":-0.00087772,"MEAN_MOTION_DDOT":0}]
